NORAD_CAT_ID,OBJECT_NAME,OBJECT_TYPE,EPOCH,MEAN_MOTION,ECCENTRICITY,INCLINATION,RA_OF_ASC_NODE,ARG_OF_PERICENTER,MEAN_ANOMALY,BSTAR,MEAN_MOTION_DOT,MEAN_MOTION_DDOT,TLE_LINE0,TLE_LINE1,TLE_LINE2,SEMIMAJOR_AXIS,PERIOD,APOGEE,PERIGEE,DECAYED
53019.0,STARLINK-4282,PAYLOAD,2022-07-24 14:00:01,15.73271451,0.000197,53.2189,295.2486,27.3334,232.6464,-0.00071635,-0.0010027999999999,0.0,0 STARLINK-4282,1 53019U 22076AK  22205.58334491 -.00100280  00000-0 -71635-3 0  9991,2 53019  53.2189 295.2486 0001970  27.3334 232.6464 15.73271451  1300,6727.691,91.529,350.88199999999995,348.231,0.0
53019.0,STARLINK-4282,PAYLOAD,2022-07-24 22:00:00,15.73193918,0.0001908,53.219,293.5981,26.1982,322.7502,-0.00042761,-0.00060194,0.0,0 STARLINK-4282,1 53019U 22076AK  22205.91667824 -.00060194  00000-0 -42761-3 0  9994,2 53019  53.2190 293.5981 0001908  26.1982 322.7502 15.73193918  3239,6727.913000000001,91.534,351.061,348.494,0.0
53019.0,STARLINK-4282,PAYLOAD,2022-07-25 14:00:01,15.73167307,0.0002145999999999,53.219,290.3007,25.5525,141.1673,0.00030674,0.00042589,0.0,0 STARLINK-4282,1 53019U 22076AK  22206.58334491  .00042589  00000-0  30674-3 0  9995,2 53019  53.2190 290.3007 0002146  25.5525 141.1673 15.73167307  3330,6727.988,91.535,351.297,348.41,0.0
53019.0,STARLINK-4282,PAYLOAD,2022-07-25 22:00:00,15.73216508,0.000202,53.2185,288.6502,26.3234,229.3014,-4.5997e-05,-7.076e-05,0.0,0 STARLINK-4282,1 53019U 22076AK  22206.91667824 -.00007076  00000-0 -45997-4 0  9990,2 53019  53.2185 288.6502 0002020  26.3234 229.3014 15.73216508  1302,6727.848000000001,91.532,351.07199999999995,348.35400000000016,0.0
53019.0,STARLINK-4282,PAYLOAD,2022-07-26 14:00:01,15.73195632,0.0002075,53.2188,285.3529,20.7123,52.8229,-1.1277e-05,-2.203e-05,0.0,0 STARLINK-4282,1 53019U 22076AK  22207.58334491 -.00002203  00000-0 -11277-4 0  9996,2 53019  53.2188 285.3529 0002075  20.7123  52.8229 15.73195632  1304,6727.908,91.533,351.1690000000001,348.37699999999984,0.0
53019.0,STARLINK-4282,PAYLOAD,2022-07-26 22:00:00,15.73215567,0.0002019,53.2189,283.7021,18.9475,143.5136,-1.0702e-05,-2.124e-05,0.0,0 STARLINK-4282,1 53019U 22076AK  22207.91667824 -.00002124  00000-0 -10702-4 0  9996,2 53019  53.2189 283.7021 0002019  18.9475 143.5136 15.73215567  1306,6727.851,91.532,351.074,348.357,0.0
53019.0,STARLINK-4282,PAYLOAD,2022-07-27 14:00:01,15.731761,0.0002224,53.2186,280.4047,17.7512,322.6712,0.00036942,0.00051493,0.0,0 STARLINK-4282,1 53019U 22076AK  22208.58334491  .00051493  00000-0  36942-3 0  9995,2 53019  53.2186 280.4047 0002224  17.7512 322.6712 15.73176100  1301,6727.9630000000025,91.535,351.325,348.332,0.0
53019.0,STARLINK-4282,PAYLOAD,2022-07-27 16:00:00,15.73173558,0.0002239,53.2183,279.9924,15.9521,76.7006,0.00052752,0.00073988,0.0,0 STARLINK-4282,1 53019U 22076AK  22208.66667824  .00073988  00000-0  52752-3 0  9993,2 53019  53.2183 279.9924 0002239  15.9521  76.7006 15.73173558  3669,6727.971,91.535,351.342,348.329,0.0
53019.0,STARLINK-4282,PAYLOAD,2022-07-27 22:00:00,15.73246464,0.0002093,53.2182,278.7538,18.3769,50.967,-0.0005193,-0.00073024,0.0,0 STARLINK-4282,1 53019U 22076AK  22208.91667824 -.00073024  00000-0 -51930-3 0  9991,2 53019  53.2182 278.7538 0002093  18.3769  50.9670 15.73246464  1302,6727.763000000001,91.53,351.036,348.22,0.0
53019.0,STARLINK-4282,PAYLOAD,2022-07-28 08:00:01,15.73198625,0.0002137,53.2182,276.6925,23.8521,246.6689,1.6033e-05,1.629e-05,0.0,0 STARLINK-4282,1 53019U 22076AK  22209.33334491  .00001629  00000-0  16033-4 0  9995,2 53019  53.2182 276.6925 0002137  23.8521 246.6689 15.73198625  3777,6727.899,91.533,351.202,348.326,0.0
53019.0,STARLINK-4282,PAYLOAD,2022-07-28 14:00:01,15.73192894,0.0002323,53.2183,275.4569,20.7232,226.4843,5.1363e-05,6.591e-05,0.0,0 STARLINK-4282,1 53019U 22076AK  22209.58334491  .00006591  00000-0  51363-4 0  9990,2 53019  53.2183 275.4569 0002323  20.7232 226.4843 15.73192894  1308,6727.915,91.534,351.343,348.218,0.0
53019.0,STARLINK-4282,PAYLOAD,2022-07-28 22:00:00,15.7317804,0.0002149,53.2184,273.8057,19.0899,317.0541,-7.099999999999999e-05,-0.00010565,0.0,0 STARLINK-4282,1 53019U 22076AK  22209.91667824 -.00010565  00000-0 -71000-4 0  9994,2 53019  53.2184 273.8057 0002149  19.0899 317.0541 15.73178040  1308,6727.958000000001,91.534,351.269,348.37699999999984,0.0
53019.0,STARLINK-4282,PAYLOAD,2022-07-29 06:00:00,15.73193745,0.0002181,53.2184,272.1563,20.72300000000001,44.3087,6.8006e-05,8.931e-05,0.0,0 STARLINK-4282,1 53019U 22076AK  22210.25001157  .00008931  00000-0  68006-4 0  9998,2 53019  53.2184 272.1563 0002181  20.7230  44.3087 15.73193745  3919,6727.913000000001,91.534,351.245,348.311,0.0
53019.0,STARLINK-4282,PAYLOAD,2022-07-29 14:00:01,15.73168354,0.0002460999999999,53.2181,270.5087,18.7454,135.2061,0.00047108,0.00065929,0.0,0 STARLINK-4282,1 53019U 22076AK  22210.58334491  .00065929  00000-0  47108-3 0  9993,2 53019  53.2181 270.5087 0002461  18.7454 135.2061 15.73168354  1306,6727.985,91.535,351.506,348.195,0.0
53019.0,STARLINK-4282,PAYLOAD,2022-07-29 22:00:00,15.73209189,0.0002264,53.2177,268.8575,19.9659,222.9075,0.00011917,0.00016143,0.0,0 STARLINK-4282,1 53019U 22076AK  22210.91667824  .00016143  00000-0  11917-3 0  9992,2 53019  53.2177 268.8575 0002264  19.9659 222.9075 15.73209189  1305,6727.869000000002,91.533,351.25699999999995,348.211,0.0
53019.0,STARLINK-4282,PAYLOAD,2022-07-30 14:00:01,15.73155372,0.000242,53.2177,265.5605,14.4153,46.3725,0.00050944,0.00071354,0.0,0 STARLINK-4282,1 53019U 22076AK  22211.58334491  .00071354  00000-0  50944-3 0  9995,2 53019  53.2177 265.5605 0002420  14.4153  46.3725 15.73155372  4123,6728.022,91.536,351.516,348.259,0.0
53019.0,STARLINK-4282,PAYLOAD,2022-07-30 22:00:00,15.73189914,0.0002276999999999,53.2179,263.9091,14.8975,134.7987,0.00020702,0.00028521,0.0,0 STARLINK-4282,1 53019U 22076AK  22211.91667824  .00028521  00000-0  20702-3 0  9998,2 53019  53.2179 263.9091 0002277  14.8975 134.7987 15.73189914  1300,6727.924,91.534,351.321,348.25699999999995,0.0
53019.0,STARLINK-4282,PAYLOAD,2022-07-31 06:00:02,15.73232292,0.0002325,53.218,262.2598,17.8302,220.8578,2.4398e-06,-2.79e-06,0.0,0 STARLINK-4282,1 53019U 22076AK  22212.25002315 -.00000279  00000-0  24398-5 0  9992,2 53019  53.2180 262.2598 0002325  17.8302 220.8578 15.73232292  4233,6727.803000000001,91.531,351.232,348.10400000000016,0.0
53019.0,STARLINK-4282,PAYLOAD,2022-07-31 14:00:01,15.7322834,0.0002563,53.2176,260.612,13.9661,313.6172,-0.00032272,-0.00045731,0.0,0 STARLINK-4282,1 53019U 22076AK  22212.58334491 -.00045731  00000-0 -32272-3 0  9992,2 53019  53.2176 260.6120 0002563  13.9661 313.6172 15.73228340  1305,6727.814,91.532,351.404,347.955,0.0
53019.0,STARLINK-4282,PAYLOAD,2022-07-31 22:00:00,15.7316862,0.0002278999999999,53.2175,258.9604,12.1609,44.3772,0.00030789,0.00042755,0.0,0 STARLINK-4282,1 53019U 22076AK  22212.91667824  .00042755  00000-0  30789-3 0  9990,2 53019  53.2175 258.9604 0002279  12.1609  44.3772 15.73168620  4332,6727.985,91.535,351.3830000000001,348.316,0.0
53019.0,STARLINK-4282,PAYLOAD,2022-08-01 14:00:01,15.73200559,0.0002593999999999,53.2175,255.6635,13.2764,221.1149,0.00044358,0.00062102,0.0,0 STARLINK-4282,1 53019U 22076AK  22213.58334491  .00062102  00000-0  44358-3 0  9990,2 53019  53.2175 255.6635 0002594  13.2764 221.1149 15.73200559  1309,6727.894,91.533,351.504,348.01300000000015,0.0
53019.0,STARLINK-4282,PAYLOAD,2022-08-01 22:00:00,15.73207209,0.0002446,53.2179,254.0118,18.8379,304.5157,-0.00019105,-0.00027359,0.0,0 STARLINK-4282,1 53019U 22076AK  22213.91667824 -.00027359  00000-0 -19105-3 0  9995,2 53019  53.2179 254.0118 0002446  18.8379 304.5157 15.73207209  1305,6727.875,91.533,351.385,348.094,0.0
53019.0,STARLINK-4282,PAYLOAD,2022-08-02 14:00:01,15.73203694,0.0002784,53.2177,250.7147,20.0895,121.1201,0.00010442,0.00014061,0.0,0 STARLINK-4282,1 53019U 22076AK  22214.58334491  .00014061  00000-0  10442-3 0  9999,2 53019  53.2177 250.7147 0002784  20.0895 121.1201 15.73203694  4592,6727.885,91.533,351.62300000000016,347.87699999999984,0.0
53019.0,STARLINK-4282,PAYLOAD,2022-08-03 06:00:00,15.73200154,0.0002561,53.2179,247.4147,19.0881,299.9706,-6.1092e-05,-9.188e-05,0.0,0 STARLINK-4282,1 53019U 22076AK  22215.25001157 -.00009188  00000-0 -61092-4 0  9998,2 53019  53.2179 247.4147 0002561  19.0881 299.9706 15.73200154  4708,6727.895,91.533,351.483,348.037,0.0
53019.0,STARLINK-4282,PAYLOAD,2022-08-03 14:00:01,15.73184892,0.0002784,53.2177,245.7664,17.7304,30.2493,0.00040979,0.00057253,0.0,0 STARLINK-4282,1 53019U 22076AK  22215.58334491  .00057253  00000-0  40979-3 0  9998,2 53019  53.2177 245.7664 0002784  17.7304  30.2493 15.73184892  1305,6727.938,91.534,351.676,347.93,0.0
53019.0,STARLINK-4282,PAYLOAD,2022-08-03 22:00:01,15.73197189,0.0002543,53.2182,244.1147,19.3883,117.603,0.00048949,0.00068637,0.0,0 STARLINK-4282,1 53019U 22076AK  22215.91668981  .00068637  00000-0  48949-3 0  9992,2 53019  53.2182 244.1147 0002543  19.3883 117.6030 15.73197189  1303,6727.903,91.533,351.47900000000016,348.057,0.0
53019.0,STARLINK-4282,PAYLOAD,2022-08-04 14:00:01,15.73184837,0.0002828,53.2182,240.8177,15.1998,299.6628,0.00032029,0.00044545,0.0,0 STARLINK-4282,1 53019U 22076AK  22216.58334491  .00044545  00000-0  32029-3 0  9996,2 53019  53.2182 240.8177 0002828  15.1998 299.6628 15.73184837  4916,6727.938,91.534,351.706,347.901,0.0
53019.0,STARLINK-4282,PAYLOAD,2022-08-04 22:00:00,15.73210588,0.0002513,53.2182,239.1663,15.0041,28.7911,-0.00018415,-0.00026401,0.0,0 STARLINK-4282,1 53019U 22076AK  22216.91667824 -.00026401  00000-0 -18415-3 0  9998,2 53019  53.2182 239.1663 0002513  15.0041  28.7911 15.73210588  1305,6727.865,91.533,351.421,348.039,0.0
53019.0,STARLINK-4282,PAYLOAD,2022-08-05 06:00:02,15.7318286,0.0002623,53.2183,237.5181,13.1848,119.6097,-2.6928e-05,-4.397e-05,0.0,0 STARLINK-4282,1 53019U 22076AK  22217.25002315 -.00004397  00000-0 -26928-4 0  9993,2 53019  53.2183 237.5181 0002623  13.1848 119.6097 15.73182860  5017,6727.944,91.534,351.574,348.0440000000001,0.0
